[{"OBJECT_NAME":"STARLINK-30069","OBJECT_ID":"2023-079M","EPOCH":"2026-03-08T11:34:15.947328","MEAN_MOTION":15.26726881,"ECCENTRICITY":4.69e-5,"INCLINATION":42.9986,"RA_OF_ASC_NODE":110.4464,"ARG_OF_PERICENTER":272.6695,"MEAN_ANOMALY":87.4103,"EPHEMERIS_TYPE":0,"CLASSIFICATION_TYPE":"U","NORAD_CAT_ID":56834,"ELEMENT_SET_NO":999,"REV_AT_EPOCH":15274,"BSTAR":-8.0472e-5,"MEAN_MOTION_DOT":-2.416e-5,"MEAN_MOTION_DDOT":0},{"OBJECT_NAME":"STARLINK-32609","OBJECT_ID":"2024-207T","EPOCH":"2026-03-09T13:28:48.920448","MEAN_MOTION":15.27585596,"ECCENTRICITY":0.00036122,"INCLINATION":42.9994,"RA_OF_ASC_NODE":282.3633,"ARG_OF_PERICENTER":297.0626,"MEAN_ANOMALY":62.9857,"EPHEMERIS_TYPE":0,"CLASSIFICATION_TYPE":"U","NORAD_CAT_ID":61929,"ELEMENT_SET_NO":999,"REV_AT_EPOCH":7470,"BSTAR":0.0010394578,"MEAN_MOTION_DOT":0.0002846,"MEAN_MOTION_DDOT":0}]
