STARLINK-30069          
1 56834U 23079M   26067.48212902 -.00002416  00000+0 -80472-4 0  9995
2 56834  42.9986 110.4464 0000469 272.6695  87.4103 15.26726881152740
STARLINK-32609          
1 61929U 24207T   26068.56167732  .00028460  00000+0  10395-2 0  9990
2 61929  42.9994 282.3633 0003612 297.0626  62.9857 15.27585596 74705
